NORAD_CAT_ID,OBJECT_NAME,OBJECT_TYPE,EPOCH,MEAN_MOTION,ECCENTRICITY,INCLINATION,RA_OF_ASC_NODE,ARG_OF_PERICENTER,MEAN_ANOMALY,BSTAR,MEAN_MOTION_DOT,MEAN_MOTION_DDOT,TLE_LINE0,TLE_LINE1,TLE_LINE2,SEMIMAJOR_AXIS,PERIOD,APOGEE,PERIGEE,DECAYED
56781.0,STARLINK-5989,PAYLOAD,2023-09-24 22:00:00,15.33700599,0.0003288,69.9998,86.8859,274.3648,257.0041,-0.029109,-0.00875862,0.0,0 STARLINK-5989,1 56781U 23078Q   23267.91667824 -.00875862  00000-0 -29109-1 0  9990,2 56781  69.9998  86.8859 0003288 274.3648 257.0041 15.33700599  5914,6842.92,93.891,467.035,462.535,0.0
56781.0,STARLINK-5989,PAYLOAD,2023-09-25 04:00:00,15.33247768,0.0003287,69.9993,86.2205,272.6103,198.4689,-0.032284,-0.00950698,0.0,0 STARLINK-5989,1 56781U 23078Q   23268.16667824 -.00950698  00000-0 -32284-1 0  9997,2 56781  69.9993  86.2205 0003287 272.6103 198.4689 15.33247768 18615,6844.267,93.918,468.382,463.882,0.0
56781.0,STARLINK-5989,PAYLOAD,2023-09-25 12:00:00,15.3258328,0.0003248,69.9996,85.334,267.5616,242.4534,-0.031242,-0.00904871,0.0,0 STARLINK-5989,1 56781U 23078Q   23268.50001157 -.00904871  00000-0 -31242-1 0  9991,2 56781  69.9996  85.3340 0003248 267.5616 242.4534 15.32583280 18662,6846.245,93.959,470.334,465.887,0.0
56781.0,STARLINK-5989,PAYLOAD,2023-09-25 14:00:01,15.32440416,0.0003377,69.9996,85.1125,266.5332,343.1548,-0.032796,-0.0094225,0.0,0 STARLINK-5989,1 56781U 23078Q   23268.58335648 -.00942250  00000-0 -32796-1 0  9992,2 56781  69.9996  85.1125 0003377 266.5332 343.1548 15.32440416  6011,6846.671,93.968,470.848,466.224,0.0
56781.0,STARLINK-5989,PAYLOAD,2023-09-25 22:00:00,15.31749129,0.0003368,69.9993,84.227,273.0849,14.5196,-0.031222,-0.00882786,0.0,0 STARLINK-5989,1 56781U 23078Q   23268.91667824 -.00882786  00000-0 -31222-1 0  9993,2 56781  69.9993  84.2270 0003368 273.0849  14.5196 15.31749129  5968,6848.731,94.01,472.902,468.289,0.0
56781.0,STARLINK-5989,PAYLOAD,2023-09-26 04:00:00,15.31288846,0.000323,69.9991,83.5635,271.4582,314.1005,-0.034248,-0.00948428,0.0,0 STARLINK-5989,1 56781U 23078Q   23269.16667824 -.00948428  00000-0 -34248-1 0  9998,2 56781  69.9991  83.5635 0003230 271.4582 314.1005 15.31288846 18772,6850.103,94.038,474.18,469.755,0.0
56781.0,STARLINK-5989,PAYLOAD,2023-09-26 12:00:00,15.30633228,0.000333,69.9992,82.6798,266.4283,355.716,-0.033619,-0.00915121,0.0,0 STARLINK-5989,1 56781U 23078Q   23269.50001157 -.00915121  00000-0 -33619-1 0  9992,2 56781  69.9992  82.6798 0003330 266.4283 355.7160 15.30633228 18822,6852.059,94.079,476.206,471.642,0.0
56781.0,STARLINK-5989,PAYLOAD,2023-09-26 14:00:01,15.30487358,0.0003491,69.9993,82.4589,269.804,91.4283,-0.035172,-0.00962074,0.0,0 STARLINK-5989,1 56781U 23078Q   23269.58335648 -.00962074  00000-0 -35172-1 0  9990,2 56781  69.9993  82.4589 0003491 269.8040  91.4283 15.30487358  5923,6852.494,94.088,476.751,471.967,0.0
56781.0,STARLINK-5989,PAYLOAD,2023-09-26 22:00:00,15.29793979,0.0003417,69.9988,81.576,276.4392,120.3632,-0.033282,-0.00885214,0.0,0 STARLINK-5989,1 56781U 23078Q   23269.91667824 -.00885214  00000-0 -33282-1 0  9991,2 56781  69.9988  81.5760 0003417 276.4392 120.3632 15.29793979  5972,6854.565,94.13,478.772,474.087,0.0
56781.0,STARLINK-5989,PAYLOAD,2023-09-27 04:00:00,15.29327296,0.0003348,69.9988,80.9146,272.6591,60.3397,-0.036112,-0.00953548,0.0,0 STARLINK-5989,1 56781U 23078Q   23270.16667824 -.00953548  00000-0 -36112-1 0  9991,2 56781  69.9988  80.9146 0003348 272.6591  60.3397 15.29327296 18920,6855.959,94.159,480.119,475.529,0.0
56781.0,STARLINK-5989,PAYLOAD,2023-09-27 14:00:01,15.28530207,0.0003299,69.999,79.8132,272.5422,193.1325,-0.037447,-0.00963988,0.0,0 STARLINK-5989,1 56781U 23078Q   23270.58334491 -.00963988  00000-0 -37447-1 0  9999,2 56781  69.9990  79.8132 0003299 272.5422 193.1325 15.28530207  6023,6858.342,94.208,482.47,477.945,0.0
56781.0,STARLINK-5989,PAYLOAD,2023-09-27 20:00:01,15.2800082,0.0003376,69.9989,79.153,276.9565,123.7602,-0.035427,-0.00891109,0.0,0 STARLINK-5989,1 56781U 23078Q   23270.83334491 -.00891109  00000-0 -35427-1 0  9998,2 56781  69.9989  79.1530 0003376 276.9565 123.7602 15.28000820 19022,6859.926,94.241,484.107,479.475,0.0
56781.0,STARLINK-5989,PAYLOAD,2023-09-28 12:00:00,15.26724617,0.0003267,69.9993,77.3948,271.963,193.3232,-0.038377,-0.00936981,0.0,0 STARLINK-5989,1 56781U 23078Q   23271.50001157 -.00936981  00000-0 -38377-1 0  9998,2 56781  69.9993  77.3948 0003267 271.9630 193.3232 15.26724617 19125,6863.749,94.32,487.856,483.371,0.0
56781.0,STARLINK-5989,PAYLOAD,2023-09-28 16:00:30,15.2639157,0.0003366,69.9992,76.9549,272.1674,30.693,-0.038949,-0.00941088,0.0,0 STARLINK-5989,1 56781U 23078Q   23271.66702546 -.00941088  00000-0 -38949-1 0  9994,2 56781  69.9992  76.9549 0003366 272.1674  30.6930 15.26391570  5982,6864.747,94.34,488.923,484.301,0.0
56781.0,STARLINK-5989,PAYLOAD,2023-09-28 22:00:01,15.25879525,0.000327,69.999,76.2976,276.3737,317.7675,-0.037506,-0.00884918,0.0,0 STARLINK-5989,1 56781U 23078Q   23271.91668981 -.00884918  00000-0 -37506-1 0  9992,2 56781  69.9990  76.2976 0003270 276.3737 317.7675 15.25879525  6028,6866.283,94.372,490.393,485.902,0.0
56781.0,STARLINK-5989,PAYLOAD,2023-09-29 12:00:00,15.2476795,0.0003189,69.9997,74.7641,270.5487,285.7475,-0.040679,-0.00936235,0.0,0 STARLINK-5989,1 56781U 23078Q   23272.50001157 -.00936235  00000-0 -40679-1 0  9999,2 56781  69.9997  74.7641 0003189 270.5487 285.7475 15.24767950 19285,6869.619,94.441,493.675,489.294,0.0
56781.0,STARLINK-5989,PAYLOAD,2023-09-29 14:00:01,15.24611317,0.0003338,69.9997,74.5451,271.2485,22.3161,-0.041748,-0.00954891,0.0,0 STARLINK-5989,1 56781U 23078Q   23272.58334491 -.00954891  00000-0 -41748-1 0  9993,2 56781  69.9997  74.5451 0003338 271.2485  22.3161 15.24611317  6013,6870.09,94.45,494.248,489.662,0.0
56781.0,STARLINK-5989,PAYLOAD,2023-09-30 06:00:00,15.23254794,0.0003345,69.9996,72.7962,272.0352,77.9193,-0.039846,-0.00870187,0.0,0 STARLINK-5989,1 56781U 23078Q   23273.25001157 -.00870187  00000-0 -39846-1 0  9999,2 56781  69.9996  72.7962 0003345 272.0352  77.9193 15.23254794  6022,6874.168,94.534,498.332,493.734,0.0
56781.0,STARLINK-5989,PAYLOAD,2023-09-30 12:00:00,15.22811261,0.000332,70.0,72.1414,269.8807,10.3849,-0.043084,-0.00935417,0.0,0 STARLINK-5989,1 56781U 23078Q   23273.50001157 -.00935417  00000-0 -43084-1 0  9994,2 56781  70.0000  72.1414 0003320 269.8807  10.3849 15.22811261 19434,6875.503,94.562,499.65,495.085,0.0
56781.0,STARLINK-5989,PAYLOAD,2023-10-01 12:00:00,15.20855823,0.0003386,70.0005,69.5268,271.749,85.4458,-0.045827,-0.00938917,0.0,0 STARLINK-5989,1 56781U 23078Q   23274.50001157 -.00938917  00000-0 -45827-1 0  9990,2 56781  70.0005  69.5268 0003386 271.7490  85.4458 15.20855823 19583,6881.395,94.684,505.59,500.93,0.0
56781.0,STARLINK-5989,PAYLOAD,2023-10-01 14:00:01,15.20697048,0.000329,70.0005,69.3093,274.8214,178.4696,-0.046969,-0.00956423,0.0,0 STARLINK-5989,1 56781U 23078Q   23274.58334491 -.00956423  00000-0 -46969-1 0  9998,2 56781  70.0005  69.3093 0003290 274.8214 178.4696 15.20697048  5966,6881.874,94.693,506.003,501.475,0.0
56781.0,STARLINK-5989,PAYLOAD,2023-10-01 22:00:00,15.20011751,0.0003302,70.0003,68.4396,280.1117,197.0734,-0.044935,-0.00901001,0.0,0 STARLINK-5989,1 56781U 23078Q   23274.91667824 -.00901001  00000-0 -44935-1 0  9997,2 56781  70.0003  68.4396 0003302 280.1117 197.0734 15.20011751  6025,6883.942,94.736,508.08,503.534,0.0
56781.0,STARLINK-5989,PAYLOAD,2023-10-02 20:00:01,15.18210344,0.0003339,70.0009,66.0528,278.9849,169.8485,-0.046771,-0.00890773,0.0,0 STARLINK-5989,1 56781U 23078Q   23275.83334491 -.00890773  00000-0 -46771-1 0  9993,2 56781  70.0009  66.0528 0003339 278.9849 169.8485 15.18210344 19782,6889.386,94.849,513.552,508.951,0.0
56781.0,STARLINK-5989,PAYLOAD,2023-10-02 22:00:00,15.18056735,0.0003224,70.0006,65.8362,278.4046,265.7353,-0.047751,-0.00904359,0.0,0 STARLINK-5989,1 56781U 23078Q   23275.91667824 -.00904359  00000-0 -47751-1 0  9996,2 56781  70.0006  65.8362 0003224 278.4046 265.7353 15.18056735  6068,6889.851,94.858,513.937,509.495,0.0
56781.0,STARLINK-5989,PAYLOAD,2023-10-03 12:00:00,15.16944156,0.0003219,70.0011,64.3212,273.3162,216.6155,-0.051733,-0.00945605,0.0,0 STARLINK-5989,1 56781U 23078Q   23276.50001157 -.00945605  00000-0 -51733-1 0  9997,2 56781  70.0011  64.3212 0003219 273.3162 216.6155 15.16944156 19889,6893.22,94.928,517.304,512.866,0.0
56781.0,STARLINK-5989,PAYLOAD,2023-10-03 14:00:01,15.16778357,0.0003215,70.0011,64.105,272.3503,312.5059,-0.052206,-0.00949417,0.0,0 STARLINK-5989,1 56781U 23078Q   23276.58334491 -.00949417  00000-0 -52206-1 0  9996,2 56781  70.0011  64.1050 0003215 272.3503 312.5059 15.16778357  6020,6893.722,94.938,517.803,513.371,0.0
56781.0,STARLINK-5989,PAYLOAD,2023-10-03 22:00:00,15.16104069,0.0003247,70.0007,63.2406,276.6818,327.3711,-0.050968,-0.00912059,0.0,0 STARLINK-5989,1 56781U 23078Q   23276.91667824 -.00912059  00000-0 -50968-1 0  9997,2 56781  70.0007  63.2406 0003247 276.6818 327.3711 15.16104069  6078,6895.766,94.98,519.87,515.392,0.0
56781.0,STARLINK-5989,PAYLOAD,2023-10-04 14:00:01,15.14819665,0.0003268,70.0011,61.5146,271.6696,8.4079,-0.055007,-0.00946266,0.0,0 STARLINK-5989,1 56781U 23078Q   23277.58334491 -.00946266  00000-0 -55007-1 0  9998,2 56781  70.0011  61.5146 0003268 271.6696   8.4079 15.14819665  6029,6899.663,95.061,523.783,519.273,0.0
56781.0,STARLINK-5989,PAYLOAD,2023-10-04 20:00:01,15.14293306,0.0003232,70.001,60.8681,277.3422,285.4526,-0.051932,-0.00884733,0.0,0 STARLINK-5989,1 56781U 23078Q   23277.83334491 -.00884733  00000-0 -51932-1 0  9999,2 56781  70.0010  60.8681 0003232 277.3422 285.4526 15.14293306 20090,6901.262,95.094,525.357,520.896,0.0
56781.0,STARLINK-5989,PAYLOAD,2023-10-04 22:00:01,15.14150415,0.000334,70.0007,60.6527,276.2283,20.7593,-0.054269,-0.00918237,0.0,0 STARLINK-5989,1 56781U 23078Q   23277.91668981 -.00918237  00000-0 -54269-1 0  9995,2 56781  70.0007  60.6527 0003340 276.2283  20.7593 15.14150415  5838,6901.696,95.103,525.866,521.256,0.0
